#cP2022  1  7  0  0  0.00000000      96 ORBIT IGb14 HLM  IGS
## 2191 432000.00000000   900.00000000 59586 0.0000000000000
+   32   G01G02G03G04G05G06G07G08G09G10G11G12G13G14G15G16G17
+        G18G19G20G21G22G23G24G25G26G27G28G29G30G31G32  0  0
+          0  0  0  0  0  0  0  0  0  0  0  0  0  0  0  0  0
+          0  0  0  0  0  0  0  0  0  0  0  0  0  0  0  0  0
+          0  0  0  0  0  0  0  0  0  0  0  0  0  0  0  0  0
++         1  1  2  1  2  1  1  2  1  2  2  2  2  2  2  2  2
++         2  2  2  2  2  3  2  1  2  2  2  2  1  1  1  0  0
++         0  0  0  0  0  0  0  0  0  0  0  0  0  0  0  0  0
++         0  0  0  0  0  0  0  0  0  0  0  0  0  0  0  0  0
++         0  0  0  0  0  0  0  0  0  0  0  0  0  0  0  0  0
%c G  cc GPS ccc cccc cccc cccc cccc ccccc ccccc ccccc ccccc
%c cc cc ccc ccc cccc cccc cccc cccc ccccc ccccc ccccc ccccc
%f  1.2500000  1.025000000  0.00000000000  0.000000000000000
%f  0.0000000  0.000000000  0.00000000000  0.000000000000000
%i    0    0    0    0      0      0      0      0         0
%i    0    0    0    0      0      0      0      0         0
/* FINAL ORBIT COMBINATION FROM WEIGHTED AVERAGE OF:        
/* cod emr esa gfz grg jpl mit ngs sio                      
/* REFERENCED TO IGS TIME (IGST) AND TO WEIGHTED MEAN POLE: 
/* PCV:IGS14_2188 OL/AL:FES2004  NONE     Y  ORB:CMB CLK:CMB
*  2022  1  7 13 30  0.00000000
PG01 -13305.699965   8394.910306  21057.211850    463.482869  4  4  3  87       
PG02  14043.381261  14593.301510 -16462.539790   -648.002154  4  5  2  58       
PG03 -22928.883666  12511.360184   4399.127951    -69.151998  6  7  4  99       
PG04 -20352.280870   2939.646848 -16852.692786   -196.017726  4  3  2  74       
PG05  20329.445186   -284.560636 -17330.792963    -67.086300  8  2  9  85       
PG06   5606.116052  25409.133514  -5077.524839    164.111767  5        63       
PG07  -6371.987291  22585.119702 -11574.109248    299.371729  7  3  3  62       
PG08 -25076.660919  -5148.063767   7696.320733    -51.178638  7  3  4  89       
PG09 -10268.048956  12063.175620 -21395.816289   -358.619686  5     4  58       
PG10   3954.454352 -18451.092969  18703.005429   -287.620254  7  4  6  57       
PG11  12212.681553  16706.362358 -16662.229099    -20.885485  4  3  3  70       
PG12  23880.433131  -9417.104755   6272.320861   -152.303790  6     3  71       
PG13  23062.325721  13208.847140   1765.242219    241.582279  5  2  3  62       
PG14  -5183.691759  18659.662242  18144.999254    -67.208935  7  4  6  70       
PG15  25432.176415   2236.439983   7497.202646    -93.338383  3  5  3  77       
PG16 -18326.151960  -4505.376492 -19132.689714   -452.178431  5  3  4  21       
PG17   4203.374855  17471.547239  19985.220348    558.151596  3     4  70       
PG18   6249.254469 -23066.241388 -11484.147777    265.354364  8  5  4  97       
PG19  12635.943323  18559.837587  14066.171931    102.432944  4  2  3  74       
PG20  13403.205808   8566.775972 -21253.089210    517.275335  4  3  5  63       
PG21 -15941.034654  -2081.366407  21896.721726    155.583949  4  2  3  57       
PG22 -22143.359112   6860.660681  12938.037209   -423.095055  5  4  4  99       
PG23  14516.870870 -19673.791976  10246.977373     13.616317  8  9  7  70       
PG24  15187.164910  -3905.505307  21131.639024    277.014923  4  2  5  82       
PG25  19292.325543 -17556.306323  -4395.957845    267.381466  6  2  5  72       
PG26  -7603.790149 -13901.531646 -21368.745078    172.210610  3  4  5  88       
PG27 -23406.689858 -12759.979382  -2659.897479     54.163334  5  6  5  90       
PG28   2539.037197  15756.682785  21792.675573    427.063219  8  4  4  73       
PG29  14045.748798  -8260.021752 -21029.689650   -464.254441  7  4  6  81       
PG30   -175.302818  26274.187977  -2774.764215   -505.061870  4  4     67       
PG31  -7053.789573 -24208.826017  -7654.055663   -158.814287  4  3  1 108       
PG32  -9373.483548 -17795.371517  17563.239492    -46.793878  5  2  5  50       
*  2022  1  7 13 45  0.00000000
PG01 -13641.731946   5912.514561  21697.961194    463.473991  3  4  3  97       
PG02  14228.758234  16477.418810 -14474.938129   -648.003205  3  4  2  68       
PG03 -22524.749696  11925.638613   7180.988548    -69.164902  6  6  4 131       
PG04 -21927.698714   2023.485581 -14905.764234   -196.016221  5  3  2  62       
PG05  18837.030534   1112.187526 -18912.680223    -67.087595  8  3  9  74       
PG06   5471.580320  25852.990721  -2208.581293    164.121447  5        72       
PG07  -6819.650902  21097.328344 -13873.643583    299.375291  7  3  3  77       
PG08 -25668.440338  -5607.347211   4973.840198    -51.180794  7  3  4  58       
PG09 -12469.854294  11114.614094 -20729.830415   -358.618772  5     4  47       
PG10   5653.495026 -19566.055980  17021.194473   -287.628791  7  4  6  65       
PG11  12159.042414  18506.232632 -14682.934097    -20.917315  3  2  3  82       
PG12  23243.849194  -8733.331091   8974.392952   -152.309028  6     3  75       
PG13  22996.639740  13428.007182  -1096.006131    241.587447  5  3  3  78       
PG14  -6908.247645  19653.182479  16436.210035    -67.214003  8  5  6  99       
PG15  26068.780550   2738.769619   4842.665864    -93.335849  4  5  3  67       
PG16 -16502.316229  -5729.728485 -20398.677161   -452.183480  4  4  4  63       
PG17   2148.476419  16530.660801  21108.945666    558.156349  4     4  92       
PG18   6591.134826 -21643.920768 -13831.904912    265.347891  8  6  4  87       
PG19  11025.255604  17832.967365  16151.320977    102.437210  4  2  3  75       
PG20  11720.742920  10349.637589 -21476.182489    517.275000  4  3  4  56       
PG21 -16379.887244  -4358.309700  21260.310003    155.584834  4  2  3  84       
PG22 -21156.807681   5588.873753  15073.475137   -423.087139  5  5  4 110       
PG23  15457.476847 -20140.832623   7625.455252     13.612759  9 10  6  76       
PG24  15692.881233  -1469.810711  21109.614301    277.015296  4  1  5  66       
PG25  19710.954037 -17524.285082  -1555.198145    267.386523  6  2  4  47       
PG26  -5714.422942 -15404.856017 -20892.597981    172.213716  3  4  5  84       
PG27 -22931.641974 -12758.760345  -5469.571427     54.184413  5  5  5  73       
PG28    531.377693  16946.544839  21028.053764    427.056208  8  4  4  91       
PG29  16087.377541  -7136.401623 -19953.449504   -464.258868  7  4  6  63       
PG30   -563.659579  25823.784142  -5539.634172   -505.064270  4  4     71       
PG31  -6832.370908 -24949.477316  -4906.725987   -158.815875  4  3  2  91       
PG32  -7410.891620 -17125.196552  19093.807381    -46.799255  5  3  4  52       
*  2022  1  7 14  0  0.00000000
PG01 -14122.503257   3404.348334  21954.349972    463.465110  3  4  2  63       
PG02  14449.294347  18108.117588 -12226.131699   -648.004282  3  4  2  40       
PG03 -21917.422395  11117.357159   9838.115260    -69.177651  7  6  4 123       
PG04 -23330.229961   1277.003201 -12703.210652   -196.014787  5  3  2  85       
PG05  17302.509408   2693.833516 -20174.775737    -67.088259  7  3  8  64       
PG06   5303.379553  25980.312120    698.564510    164.131151  5  1     64       
PG07  -7383.853155  19386.166991 -15923.174473    299.378699  7  3  3  82       
PG08 -25988.975359  -5936.107018   2167.461674    -51.181757  7  4  5  77       
PG09 -14627.185774  10310.220531 -19709.635656   -358.617832  5  1  4  83       
PG10   7135.599787 -20636.480894  15045.908476   -287.637348  6  5  6  81       
PG11  12169.488374  20070.003588 -12451.204718    -20.949175  3  2  2  86       
PG12  22403.377065  -7836.865159  11519.208861   -152.313943  6  2  4  84       
PG13  22656.987478  13502.574790  -3938.601039    241.592775  5  3  3  74       
PG14  -8415.364776  20604.073831  14443.780076    -67.218996  8  6  5  80       
PG15  26432.530391   3140.477767   2105.628287    -93.333116  4  5  4  73       
PG16 -14646.639083  -7125.056056 -21325.103097   -452.188214  4  5  3  57       
PG17    -51.487111  15666.293387  21882.906028    558.160860  4     4  70       
PG18   7049.277343 -19992.586932 -15940.498098    265.341482  8  6  5 101       
PG19   9174.068192  17099.788740  17955.526965    102.441713  4  2  2  88       
PG20  10126.609380  12214.192983 -21329.956245    517.275192  4  2  4  73       
PG21 -16917.849987  -6519.826028  20282.839174    155.585530  4  2  3  69       
PG22 -20078.040794   4109.194648  16949.861021   -423.079123  5  4  4  97       
PG23  16145.496621 -20452.482185   4871.931754     13.609220  9 10  5  94       
PG24  16305.714554    912.030533  20715.396792    277.015623  4  1  5  52       
PG25  19886.135677 -17299.894047   1312.724711    267.391578  6  2  4  77       
PG26  -3951.758985 -16949.643019 -20057.734472    172.216853  2  4  5  97       
PG27 -22165.576321 -12680.123221  -8187.675133     54.205499  5  5  5  74       
PG28  -1323.062180  18185.560918  19919.407483    427.049495  8  5  4  67       
PG29  18058.863794  -6184.918297 -18535.622820   -464.263389  7  4  6  80       
PG30  -1022.533405  25087.904641  -8207.604923   -505.066742  4  4  2  79       
PG31  -6596.880839 -25386.156848  -2072.727810   -158.817700  5  3  1 108       
PG32  -5269.849384 -16507.880342  20300.847321    -46.804595  4  2  4  77       
EOF
